{
    "links": {
        "self": "http://www.neowsapp.com/rest/v1/neo/3273791?api_key=iIulBulltgU6a56xZRHN4H3l9WmuAYTsLGpBGhQ2"
    },
    "id": "3273791",
    "neo_reference_id": "3273791",
    "name": "(2005 EC71)",
    "designation": "2005 EC71",
    "nasa_jpl_url": "http://ssd.jpl.nasa.gov/sbdb.cgi?sstr=3273791",
    "absolute_magnitude_h": 22.9,
    "estimated_diameter": {
        "kilometers": {
            "estimated_diameter_min": 0.0699125232,
            "estimated_diameter_max": 0.1563291544
        },
        "meters": {
            "estimated_diameter_min": 69.9125232246,
            "estimated_diameter_max": 156.3291544087
        },
        "miles": {
            "estimated_diameter_min": 0.0434416145,
            "estimated_diameter_max": 0.097138403
        },
        "feet": {
            "estimated_diameter_min": 229.3718026961,
            "estimated_diameter_max": 512.8909429502
        }
    },
    "is_potentially_hazardous_asteroid": false,
    "close_approach_data": [
        {
            "close_approach_date": "2005-03-11",
            "close_approach_date_full": "2005-Mar-11 14:57",
            "epoch_date_close_approach": 1110553020000,
            "relative_velocity": {
                "kilometers_per_second": "22.0669007012",
                "kilometers_per_hour": "79440.8425244312",
                "miles_per_hour": "49361.4501785834"
            },
            "miss_distance": {
                "astronomical": "0.1000617775",
                "lunar": "38.9240314475",
                "kilometers": "14969028.782413925",
                "miles": "9301323.177305165"
            },
            "orbiting_body": "Earth"
        }
    ],
    "orbital_data": {
        "orbit_id": "8",
        "orbit_determination_date": "2017-04-06 09:11:19",
        "first_observation_date": "2005-03-10",
        "last_observation_date": "2005-03-13",
        "data_arc_in_days": 3,
        "observations_used": 27,
        "orbit_uncertainty": "9",
        "minimum_orbit_intersection": ".0996411",
        "jupiter_tisserand_invariant": "3.272",
        "epoch_osculation": "2453440.5",
        "eccentricity": ".4960323348456577",
        "semi_major_axis": "2.168798357397712",
        "inclination": "38.88827983529536",
        "ascending_node_longitude": "170.4502549163321",
        "orbital_period": "1166.614017315797",
        "perihelion_distance": "1.093004244368298",
        "perihelion_argument": "1.44606701977053",
        "aphelion_distance": "3.244592470427127",
        "perihelion_time": "2453442.431434010088",
        "mean_anomaly": "359.403987751466",
        "mean_motion": ".3085853544159409",
        "equinox": "J2000",
        "orbit_class": {
            "orbit_class_type": "AMO",
            "orbit_class_description": "Near-Earth asteroid orbits similar to that of 1221 Amor",
            "orbit_class_range": "1.017 AU < q (perihelion) < 1.3 AU"
        }
    },
    "is_sentry_object": false
}